OBJECT_NAME,OBJECT_ID,EPOCH,MEAN_MOTION,ECCENTRICITY,INCLINATION,RA_OF_ASC_NODE,ARG_OF_PERICENTER,MEAN_ANOMALY,EPHEMERIS_TYPE,CLASSIFICATION_TYPE,NORAD_CAT_ID,ELEMENT_SET_NO,REV_AT_EPOCH,BSTAR,MEAN_MOTION_DOT,MEAN_MOTION_DDOT
COSMO-SKYMED 1,2007-023A,2026-06-05T20:08:38.410944,14.97049945,.0001398,97.8862,348.6007,81.2831,278.8548,0,U,31598,999,2809,.19978E-3,.2242E-4,0
COSMOS 2428,2007-029A,2026-06-05T19:35:31.845984,14.12930805,.0007292,70.9378,18.3531,156.9125,203.2325,0,U,31792,999,97654,-.71397E-4,-.181E-5,0
SL-16 R/B,2007-029B,2026-06-05T07:47:28.000032,14.14848221,.0002281,70.9758,348.1665,258.1086,275.2376,0,U,31793,999,97776,.1426E-3,.227E-5,0
KORONAS-FOTON,2009-003A,2026-06-05T19:31:20.585280,15.45480388,.0010431,82.4289,184.1220,186.0732,174.0392,0,U,33504,999,95934,.2568E-3,.12368E-3,0
CZ-2C R/B,2011-030B,2026-06-05T19:52:08.900256,14.81443762,.0053744,97.8650,112.4198,64.1900,351.3053,0,U,37731,999,80314,.19615E-3,.1519E-4,0
H-2A R/B,2012-025E,2026-06-05T15:36:21.367584,14.95650200,.0044528,98.4818,130.8459,26.2850,334.0615,0,U,38341,999,76136,.29782E-3,.3307E-4,0
SHIJIAN-16 (SJ-16),2013-057A,2026-06-05T20:16:21.558144,14.92587520,.001698,74.9730,18.1663,257.0201,102.9091,0,U,39358,999,68465,.17753E-3,.1802E-4,0
SL-4 R/B,2014-021B,2026-06-05T14:11:49.406784,15.41691053,.0091664,51.6056,267.5699,63.8191,297.2185,0,U,39679,999,66982,.26444E-3,.12753E-3,0
ALOS-2,2014-029A,2026-06-05T20:16:02.508672,14.79466049,.0001679,97.9214,254.1708,90.9073,269.2331,0,U,39766,999,64990,.29774E-3,.2172E-4,0
YAOGAN-29,2015-069A,2026-06-05T20:14:07.334880,14.83076620,.0002986,98.0028,185.4580,72.5568,287.5972,0,U,41038,999,56894,.10523E-3,.802E-5,0
ASTRO-H (HITOMI),2016-012A,2026-06-05T16:02:18.379392,15.10459953,.0009525,30.9975,148.5778,138.3181,221.8184,0,U,41337,999,56554,.13512E-3,.2376E-4,0
HXMT (HUIYAN),2017-034A,2026-06-05T16:31:31.902816,15.18388254,.003019,43.0134,247.0661,71.1128,289.2990,0,U,42758,999,49591,.2626E-3,.532E-4,0
SAOCOM 1A,2018-076A,2026-06-05T19:03:45.228672,14.82164455,.0001502,97.8881,343.7082,78.1272,282.0109,0,U,43641,999,41441,.16014E-4,.75E-6,0
H-2A R/B,2018-084L,2026-06-05T09:43:25.493088,15.44683415,.0024509,98.8588,32.7243,79.9429,280.4578,0,U,43682,999,41930,.4048E-3,.19E-3,0
SAOCOM 1B,2020-059A,2026-06-05T19:48:46.446912,14.82164202,.0001515,97.8886,342.8335,79.3620,280.7764,0,U,46265,999,31180,.12463E-3,.94E-5,0
CSS (TIANHE),2021-035A,2026-06-05T17:07:46.602048,15.60304132,.0009364,41.4692,31.8018,349.1605,10.9031,0,U,48274,999,29137,.29227E-3,.24377E-3,0
COSMOS 2550,2021-056A,2026-06-05T20:57:43.323840,15.33718951,.0008687,67.1420,134.1285,267.1425,92.8735,0,U,48865,999,27698,.19166E-3,.6098E-4,0
CZ-2C R/B,2022-058K,2026-06-05T11:12:48.003264,15.61027103,.0033181,50.1841,224.4658,218.6084,141.2516,0,U,52794,999,22381,.36772E-3,.32018E-3,0
CZ-2C R/B,2022-132E,2026-06-05T11:52:32.244096,15.70134899,.0017082,97.2908,163.0088,120.0536,240.2423,0,U,54039,999,20411,.51149E-3,.62452E-3,0
GSLV R/B,2022-138AN,2026-06-05T11:43:20.064288,14.97203291,.0020849,87.3798,136.9131,184.9290,175.1740,0,U,54149,999,19706,.27889E-3,.3266E-4,0
XRISM,2023-137A,2026-06-05T10:38:11.573664,15.12359257,.0007852,31.0023,75.6673,206.7851,153.2383,0,U,57800,999,15108,.25313E-3,.46E-4,0
ACS3,2024-077B,2026-06-05T08:39:52.389792,13.93567814,.0045343,97.1690,77.7891,66.4054,294.1864,0,U,59588,999,10639,.31981E-1,.42522E-3,0
CZ-8A R/B,2025-231K,2026-06-05T12:32:55.167936,14.30151625,.0116477,50.0036,88.9409,182.9341,177.0904,0,U,66004,999,3327,.38308E-4,-.57E-6,0
SZ-21 MODULE,2025-246C,2026-06-01T22:35:51.528768,15.75039202,.00071014,41.4749,42.1841,261.1371,98.8669,0,U,66515,999,3133,.30884922E-3,.47427E-3,0
