COSMO-SKYMED 1          
1 31598U 07023A   26156.83933346  .00002242  00000+0  19978-3 0  9993
2 31598  97.8862 348.6007 0001398  81.2831 278.8548 14.97049945 28093
COSMOS 2428             
1 31792U 07029A   26156.81634081 -.00000181  00000+0 -71397-4 0  9993
2 31792  70.9378  18.3531 0007292 156.9125 203.2325 14.12930805976549
SL-16 R/B               
1 31793U 07029B   26156.32462963  .00000227  00000+0  14260-3 0  9992
2 31793  70.9758 348.1665 0002281 258.1086 275.2376 14.14848221977760
KORONAS-FOTON           
1 33504U 09003A   26156.81343270  .00012368  00000+0  25680-3 0  9998
2 33504  82.4289 184.1220 0010431 186.0732 174.0392 15.45480388959346
CZ-2C R/B               
1 37731U 11030B   26156.82788079  .00001519  00000+0  19615-3 0  9995
2 37731  97.8650 112.4198 0053744  64.1900 351.3053 14.81443762803143
H-2A R/B                
1 38341U 12025E   26156.65024731  .00003307  00000+0  29782-3 0  9990
2 38341  98.4818 130.8459 0044528  26.2850 334.0615 14.95650200761362
SHIJIAN-16 (SJ-16)      
1 39358U 13057A   26156.84469396  .00001802  00000+0  17753-3 0  9999
2 39358  74.9730  18.1663 0016980 257.0201 102.9091 14.92587520684650
SL-4 R/B                
1 39679U 14021B   26156.59154406  .00012753  00000+0  26444-3 0  9996
2 39679  51.6056 267.5699 0091664  63.8191 297.2185 15.41691053669827
ALOS-2                  
1 39766U 14029A   26156.84447348  .00002172  00000+0  29774-3 0  9992
2 39766  97.9214 254.1708 0001679  90.9073 269.2331 14.79466049649907
YAOGAN-29               
1 41038U 15069A   26156.84314045  .00000802  00000+0  10523-3 0  9999
2 41038  98.0028 185.4580 0002986  72.5568 287.5972 14.83076620568943
ASTRO-H (HITOMI)        
1 41337U 16012A   26156.66826828  .00002376  00000+0  13512-3 0  9996
2 41337  30.9975 148.5778 0009525 138.3181 221.8184 15.10459953565542
HXMT (HUIYAN)           
1 42758U 17034A   26156.68856369  .00005320  00000+0  26260-3 0  9990
2 42758  43.0134 247.0661 0030190  71.1128 289.2990 15.18388254495914
SAOCOM 1A               
1 43641U 18076A   26156.79427348  .00000075  00000+0  16014-4 0  9991
2 43641  97.8881 343.7082 0001502  78.1272 282.0109 14.82164455414419
H-2A R/B                
1 43682U 18084L   26156.40515617  .00019000  00000+0  40480-3 0  9991
2 43682  98.8588  32.7243 0024509  79.9429 280.4578 15.44683415419304
SAOCOM 1B               
1 46265U 20059A   26156.82553758  .00000940  00000+0  12463-3 0  9993
2 46265  97.8886 342.8335 0001515  79.3620 280.7764 14.82164202311805
CSS (TIANHE)            
1 48274U 21035A   26156.71373382  .00024377  00000+0  29227-3 0  9997
2 48274  41.4692  31.8018 0009364 349.1605  10.9031 15.60304132291375
COSMOS 2550             
1 48865U 21056A   26156.87341810  .00006098  00000+0  19166-3 0  9995
2 48865  67.1420 134.1285 0008687 267.1425  92.8735 15.33718951276982
CZ-2C R/B               
1 52794U 22058K   26156.46722226  .00032018  00000+0  36772-3 0  9996
2 52794  50.1841 224.4658 0033181 218.6084 141.2516 15.61027103223816
CZ-2C R/B               
1 54039U 22132E   26156.49481764  .00062452  00000+0  51149-3 0  9995
2 54039  97.2908 163.0088 0017082 120.0536 240.2423 15.70134899204111
GSLV R/B                
1 54149U 22138AN  26156.48842667  .00003266  00000+0  27889-3 0  9997
2 54149  87.3798 136.9131 0020849 184.9290 175.1740 14.97203291197063
XRISM                   
1 57800U 23137A   26156.44318951  .00004600  00000+0  25313-3 0  9997
2 57800  31.0023  75.6673 0007852 206.7851 153.2383 15.12359257151086
ACS3                    
1 59588U 24077B   26156.36102303  .00042522  00000+0  31981-1 0  9990
2 59588  97.1690  77.7891 0045343  66.4054 294.1864 13.93567814106392
CZ-8A R/B               
1 66004U 25231K   26156.52286074 -.00000057  00000+0  38308-4 0  9991
2 66004  50.0036  88.9409 0116477 182.9341 177.0904 14.30151625 33275
SZ-21 MODULE            
1 66515U 25246C   26152.94156862  .00047427  00000+0  30885-3 0  9999
2 66515  41.4749  42.1841 0007101 261.1371  98.8669 15.75039202 31334
